INNOSAT 3 (RS92S0)      
1 64894U 25155U   26169.28484910  .00029811  00000+0  65628-3 0  9999
2 64894  97.4490 140.8069 0006744 148.6315 211.5336 15.43892042 81135
KNACKSAT-2              
1 67683U 98067XZ  26168.60673955  .00040994  00000+0  49993-3 0  9996
2 67683  51.6314 292.3670 0009088 217.1010 142.9356 15.60014370 20344
